{
  "type": "FeatureCollection",
  "features": [
    {
      "type": "Feature",
      "properties": {
        "norad_id": 40730,
        "name": "GPS BIIF-10 (PRN 08)",
        "group": "gps-ops",
        "lat": 52.96287229223808,
        "lon": -11.941108319756697,
        "alt_km": 19997.78968501052,
        "timestamp": "2025-12-11T20:41:15.340184+00:00",
        "meta_object_name": "GPS BIIF-10 (PRN 08)",
        "meta_object_id": "2015-033A",
        "meta_epoch": "2025-12-10T18:08:59.885952",
        "meta_mean_motion": 2.00565667,
        "meta_eccentricity": 0.01108361,
        "meta_inclination": 54.1324,
        "meta_ra_of_asc_node": 274.8545,
        "meta_arg_of_pericenter": 26.7633,
        "meta_mean_anomaly": 333.8214,
        "meta_ephemeris_type": 0,
        "meta_classification_type": "U",
        "meta_norad_cat_id": 40730,
        "meta_element_set_no": 999,
        "meta_rev_at_epoch": 7621,
        "meta_bstar": 0,
        "meta_mean_motion_dot": -6.3e-07,
        "meta_mean_motion_ddot": 0,
        "tle_line1": "1 40730U 15033A   25344.75624868 -.00000063  00000+0  00000+0 0  9998",
        "tle_line2": "2 40730  54.1324 274.8545 0110836  26.7633 333.8214  2.00565667 76213"
      },
      "geometry": {
        "type": "Point",
        "coordinates": [
          -11.941108319756697,
          52.96287229223808
        ]
      }
    },
    {
      "type": "Feature",
      "properties": {
        "norad_id": 41019,
        "name": "GPS BIIF-11 (PRN 10)",
        "group": "gps-ops",
        "lat": 28.612449360825995,
        "lon": 58.93487798845055,
        "alt_km": 20462.958534252983,
        "timestamp": "2025-12-11T20:41:15.340196+00:00",
        "meta_object_name": "GPS BIIF-11 (PRN 10)",
        "meta_object_id": "2015-062A",
        "meta_epoch": "2025-12-11T07:32:26.435904",
        "meta_mean_motion": 2.00567124,
        "meta_eccentricity": 0.01107874,
        "meta_inclination": 56.8311,
        "meta_ra_of_asc_node": 38.0574,
        "meta_arg_of_pericenter": 229.9047,
        "meta_mean_anomaly": 129.1688,
        "meta_ephemeris_type": 0,
        "meta_classification_type": "U",
        "meta_norad_cat_id": 41019,
        "meta_element_set_no": 999,
        "meta_rev_at_epoch": 7406,
        "meta_bstar": 0,
        "meta_mean_motion_dot": -9.3e-07,
        "meta_mean_motion_ddot": 0,
        "tle_line1": "1 41019U 15062A   25345.31419486 -.00000093  00000+0  00000+0 0  9995",
        "tle_line2": "2 41019  56.8311  38.0574 0110787 229.9047 129.1688  2.00567124 74064"
      },
      "geometry": {
        "type": "Point",
        "coordinates": [
          58.93487798845055,
          28.612449360825995
        ]
      }
    },
    {
      "type": "Feature",
      "properties": {
        "norad_id": 41328,
        "name": "GPS BIIF-12 (PRN 32)",
        "group": "gps-ops",
        "lat": -19.504377318481954,
        "lon": 82.7514552688812,
        "alt_km": 20194.046419979168,
        "timestamp": "2025-12-11T20:41:15.340207+00:00",
        "meta_object_name": "GPS BIIF-12 (PRN 32)",
        "meta_object_id": "2016-007A",
        "meta_epoch": "2025-12-10T21:33:15.579936",
        "meta_mean_motion": 2.00560768,
        "meta_eccentricity": 0.0092092,
        "meta_inclination": 55.4051,
        "meta_ra_of_asc_node": 96.9301,
        "meta_arg_of_pericenter": 243.5329,
        "meta_mean_anomaly": 115.5097,
        "meta_ephemeris_type": 0,
        "meta_classification_type": "U",
        "meta_norad_cat_id": 41328,
        "meta_element_set_no": 999,
        "meta_rev_at_epoch": 7206,
        "meta_bstar": 0,
        "meta_mean_motion_dot": 1e-08,
        "meta_mean_motion_ddot": 0,
        "tle_line1": "1 41328U 16007A   25344.89809699  .00000001  00000+0  00000+0 0  9997",
        "tle_line2": "2 41328  55.4051  96.9301 0092092 243.5329 115.5097  2.00560768 72065"
      },
      "geometry": {
        "type": "Point",
        "coordinates": [
          82.7514552688812,
          -19.504377318481954
        ]
      }
    },
    {
      "type": "Feature",
      "properties": {
        "norad_id": 43873,
        "name": "GPS BIII-1  (PRN 04)",
        "group": "gps-ops",
        "lat": -39.16583369183755,
        "lon": -46.490460237885586,
        "alt_km": 20106.584692688913,
        "timestamp": "2025-12-11T20:41:15.340218+00:00",
        "meta_object_name": "GPS BIII-1  (PRN 04)",
        "meta_object_id": "2018-109A",
        "meta_epoch": "2025-12-11T13:23:14.841888",
        "meta_mean_motion": 2.00553563,
        "meta_eccentricity": 0.00372884,
        "meta_inclination": 55.5667,
        "meta_ra_of_asc_node": 99.5933,
        "meta_arg_of_pericenter": 194.9209,
        "meta_mean_anomaly": 175.1233,
        "meta_ephemeris_type": 0,
        "meta_classification_type": "U",
        "meta_norad_cat_id": 43873,
        "meta_element_set_no": 999,
        "meta_rev_at_epoch": 5131,
        "meta_bstar": 0,
        "meta_mean_motion_dot": 4e-08,
        "meta_mean_motion_ddot": 0,
        "tle_line1": "1 43873U 18109A   25345.55781067  .00000004  00000+0  00000+0 0  9994",
        "tle_line2": "2 43873  55.5667  99.5933 0037288 194.9209 175.1233  2.00553563 51312"
      },
      "geometry": {
        "type": "Point",
        "coordinates": [
          -46.490460237885586,
          -39.16583369183755
        ]
      }
    },
    {
      "type": "Feature",
      "properties": {
        "norad_id": 44506,
        "name": "GPS BIII-2  (PRN 18)",
        "group": "gps-ops",
        "lat": 41.94601287185533,
        "lon": 120.78398012023197,
        "alt_km": 20130.211936929616,
        "timestamp": "2025-12-11T20:41:15.340229+00:00",
        "meta_object_name": "GPS BIII-2  (PRN 18)",
        "meta_object_id": "2019-056A",
        "meta_epoch": "2025-12-11T10:12:28.532736",
        "meta_mean_motion": 2.00566237,
        "meta_eccentricity": 0.00577517,
        "meta_inclination": 55.7218,
        "meta_ra_of_asc_node": 338.6041,
        "meta_arg_of_pericenter": 198.4885,
        "meta_mean_anomaly": 332.8185,
        "meta_ephemeris_type": 0,
        "meta_classification_type": "U",
        "meta_norad_cat_id": 44506,
        "meta_element_set_no": 999,
        "meta_rev_at_epoch": 4630,
        "meta_bstar": 0,
        "meta_mean_motion_dot": -8.7e-07,
        "meta_mean_motion_ddot": 0,
        "tle_line1": "1 44506U 19056A   25345.42533024 -.00000087  00000+0  00000+0 0  9996",
        "tle_line2": "2 44506  55.7218 338.6041 0057751 198.4885 332.8185  2.00566237 46306"
      },
      "geometry": {
        "type": "Point",
        "coordinates": [
          120.78398012023197,
          41.94601287185533
        ]
      }
    },
    {
      "type": "Feature",
      "properties": {
        "norad_id": 45854,
        "name": "GPS BIII-3  (PRN 23)",
        "group": "gps-ops",
        "lat": 51.69987182012186,
        "lon": 93.00588739274363,
        "alt_km": 20286.008849436956,
        "timestamp": "2025-12-11T20:41:15.340240+00:00",
        "meta_object_name": "GPS BIII-3  (PRN 23)",
        "meta_object_id": "2020-041A",
        "meta_epoch": "2025-12-10T06:22:51.669120",
        "meta_mean_motion": 2.00561869,
        "meta_eccentricity": 0.0060434,
        "meta_inclination": 56.5455,
        "meta_ra_of_asc_node": 36.2815,
        "meta_arg_of_pericenter": 203.3429,
        "meta_mean_anomaly": 154.8897,
        "meta_ephemeris_type": 0,
        "meta_classification_type": "U",
        "meta_norad_cat_id": 45854,
        "meta_element_set_no": 999,
        "meta_rev_at_epoch": 4024,
        "meta_bstar": 0,
        "meta_mean_motion_dot": -9e-07,
        "meta_mean_motion_ddot": 0,
        "tle_line1": "1 45854U 20041A   25344.26587580 -.00000090  00000+0  00000+0 0  9990",
        "tle_line2": "2 45854  56.5455  36.2815 0060434 203.3429 154.8897  2.00561869 40242"
      },
      "geometry": {
        "type": "Point",
        "coordinates": [
          93.00588739274363,
          51.69987182012186
        ]
      }
    },
    {
      "type": "Feature",
      "properties": {
        "norad_id": 46826,
        "name": "GPS BIII-4  (PRN 14)",
        "group": "gps-ops",
        "lat": 32.308929906156045,
        "lon": -114.27895646369487,
        "alt_km": 20341.34664297988,
        "timestamp": "2025-12-11T20:41:15.340251+00:00",
        "meta_object_name": "GPS BIII-4  (PRN 14)",
        "meta_object_id": "2020-078A",
        "meta_epoch": "2025-12-11T12:08:25.039104",
        "meta_mean_motion": 2.0056681,
        "meta_eccentricity": 0.00646308,
        "meta_inclination": 54.0154,
        "meta_ra_of_asc_node": 218.391,
        "meta_arg_of_pericenter": 203.3565,
        "meta_mean_anomaly": 301.1266,
        "meta_ephemeris_type": 0,
        "meta_classification_type": "U",
        "meta_norad_cat_id": 46826,
        "meta_element_set_no": 999,
        "meta_rev_at_epoch": 3774,
        "meta_bstar": 0,
        "meta_mean_motion_dot": 1e-07,
        "meta_mean_motion_ddot": 0,
        "tle_line1": "1 46826U 20078A   25345.50584536  .00000010  00000+0  00000+0 0  9997",
        "tle_line2": "2 46826  54.0154 218.3910 0064630 203.3565 301.1266  2.00566810 37742"
      },
      "geometry": {
        "type": "Point",
        "coordinates": [
          -114.27895646369487,
          32.308929906156045
        ]
      }
    }
  ]
}